{"type": "FeatureCollection", "features": [ {"type": "Feature", "properties": {"norad_id": 66496, "name": "STARLINK-35909", "group": "last-30-days", "lat": -2.9159169694134164, "lon": 10.178985760026514, "alt_km": 344.812808262659, "timestamp": "2025-12-02T06:27:51.801453+00:00", "meta": {"OBJECT_NAME": "STARLINK-35909", "OBJECT_ID": "2025-263M", "EPOCH": "2025-12-01T20:00:01.999008", "MEAN_MOTION": 15.75056168, "ECCENTRICITY": 0.0001646, "INCLINATION": 42.9989, "RA_OF_ASC_NODE": 189.6912, "ARG_OF_PERICENTER": 276.6595, "MEAN_ANOMALY": 312.3821, "EPHEMERIS_TYPE": 0, "CLASSIFICATION_TYPE": "U", "NORAD_CAT_ID": 66496, "ELEMENT_SET_NO": 999, "REV_AT_EPOCH": 388, "BSTAR": -0.00023784, "MEAN_MOTION_DOT": -0.0003688, "MEAN_MOTION_DDOT": 0}, "tle": {"line1": "1 66496U 25263M   25335.83335647 -.00036880  00000+0 -23784-3 0  9999", "line2": "2 66496  42.9989 189.6912 0001646 276.6595 312.3821 15.75056168  3880"}}, "geometry": {"type": "Point", "coordinates": [10.178985760026514, -2.9159169694134164]}}, {"type": "Feature", "properties": {"norad_id": 66497, "name": "STARLINK-35899", "group": "last-30-days", "lat": -4.22851701951867, "lon": 11.591391185400855, "alt_km": 344.6754712095935, "timestamp": "2025-12-02T06:27:51.801464+00:00", "meta": {"OBJECT_NAME": "STARLINK-35899", "OBJECT_ID": "2025-263N", "EPOCH": "2025-12-01T20:00:01.999008", "MEAN_MOTION": 15.74920511, "ECCENTRICITY": 0.000163, "INCLINATION": 42.9989, "RA_OF_ASC_NODE": 189.6859, "ARG_OF_PERICENTER": 263.9975, "MEAN_ANOMALY": 327.0761, "EPHEMERIS_TYPE": 0, "CLASSIFICATION_TYPE": "U", "NORAD_CAT_ID": 66497, "ELEMENT_SET_NO": 999, "REV_AT_EPOCH": 388, "BSTAR": 0.00081632, "MEAN_MOTION_DOT": 0.00126153, "MEAN_MOTION_DDOT": 0}, "tle": {"line1": "1 66497U 25263N   25335.83335647  .00126153  00000+0  81632-3 0  9997", "line2": "2 66497  42.9989 189.6859 0001630 263.9975 327.0761 15.74920511  3882"}}, "geometry": {"type": "Point", "coordinates": [11.591391185400855, -4.22851701951867]}}, {"type": "Feature", "properties": {"norad_id": 66498, "name": "STARLINK-35907", "group": "last-30-days", "lat": -5.526263794181135, "lon": 12.996117306228932, "alt_km": 344.6831372953029, "timestamp": "2025-12-02T06:27:51.801476+00:00", "meta": {"OBJECT_NAME": "STARLINK-35907", "OBJECT_ID": "2025-263P", "EPOCH": "2025-12-01T20:00:01.999008", "MEAN_MOTION": 15.75014059, "ECCENTRICITY": 0.000161, "INCLINATION": 42.999, "RA_OF_ASC_NODE": 189.682, "ARG_OF_PERICENTER": 263.0579, "MEAN_ANOMALY": 329.8261, "EPHEMERIS_TYPE": 0, "CLASSIFICATION_TYPE": "U", "NORAD_CAT_ID": 66498, "ELEMENT_SET_NO": 999, "REV_AT_EPOCH": 388, "BSTAR": 0.00037651, "MEAN_MOTION_DOT": 0.0005769, "MEAN_MOTION_DDOT": 0}, "tle": {"line1": "1 66498U 25263P   25335.83335647  .00057690  00000+0  37651-3 0  9999", "line2": "2 66498  42.9990 189.6820 0001610 263.0579 329.8261 15.75014059  3889"}}, "geometry": {"type": "Point", "coordinates": [12.996117306228932, -5.526263794181135]}}, {"type": "Feature", "properties": {"norad_id": 66499, "name": "STARLINK-35816", "group": "last-30-days", "lat": -8.198624494815185, "lon": 15.921032305475588, "alt_km": 345.20485276077125, "timestamp": "2025-12-02T06:27:51.801490+00:00", "meta": {"OBJECT_NAME": "STARLINK-35816", "OBJECT_ID": "2025-263Q", "EPOCH": "2025-12-01T20:00:01.999008", "MEAN_MOTION": 15.75171445, "ECCENTRICITY": 0.0001339, "INCLINATION": 42.9987, "RA_OF_ASC_NODE": 189.672, "ARG_OF_PERICENTER": 263.3928, "MEAN_ANOMALY": 333.3817, "EPHEMERIS_TYPE": 0, "CLASSIFICATION_TYPE": "U", "NORAD_CAT_ID": 66499, "ELEMENT_SET_NO": 999, "REV_AT_EPOCH": 388, "BSTAR": -0.001392, "MEAN_MOTION_DOT": -0.00210274, "MEAN_MOTION_DDOT": 0}, "tle": {"line1": "1 66499U 25263Q   25335.83335647 -.00210274  00000+0 -13920-2 0  9993", "line2": "2 66499  42.9987 189.6720 0001339 263.3928 333.3817 15.75171445  3884"}}, "geometry": {"type": "Point", "coordinates": [15.921032305475588, -8.198624494815185]}}, {"type": "Feature", "properties": {"norad_id": 66500, "name": "STARLINK-35894", "group": "last-30-days", "lat": -6.821712772552234, "lon": 14.40783334686084, "alt_km": 344.83753828380486, "timestamp": "2025-12-02T06:27:51.801501+00:00", "meta": {"OBJECT_NAME": "STARLINK-35894", "OBJECT_ID": "2025-263R", "EPOCH": "2025-12-01T20:00:01.999008", "MEAN_MOTION": 15.75045789, "ECCENTRICITY": 0.0002185, "INCLINATION": 42.9989, "RA_OF_ASC_NODE": 189.6775, "ARG_OF_PERICENTER": 265.4837, "MEAN_ANOMALY": 329.3144, "EPHEMERIS_TYPE": 0, "CLASSIFICATION_TYPE": "U", "NORAD_CAT_ID": 66500, "ELEMENT_SET_NO": 999, "REV_AT_EPOCH": 388, "BSTAR": -4.0542e-05, "MEAN_MOTION_DOT": -6.703e-05, "MEAN_MOTION_DDOT": 0}, "tle": {"line1": "1 66500U 25263R   25335.83335647 -.00006703  00000+0 -40542-4 0  9998", "line2": "2 66500  42.9989 189.6775 0002185 265.4837 329.3144 15.75045789  3880"}}, "geometry": {"type": "Point", "coordinates": [14.40783334686084, -6.821712772552234]}}, {"type": "Feature", "properties": {"norad_id": 66501, "name": "STARLINK-35897", "group": "last-30-days", "lat": -9.411322325747228, "lon": 17.267700027815096, "alt_km": 345.2075705563857, "timestamp": "2025-12-02T06:27:51.801511+00:00", "meta": {"OBJECT_NAME": "STARLINK-35897", "OBJECT_ID": "2025-263S", "EPOCH": "2025-12-01T20:00:01.999008", "MEAN_MOTION": 15.75027486, "ECCENTRICITY": 0.0001487, "INCLINATION": 42.9988, "RA_OF_ASC_NODE": 189.667, "ARG_OF_PERICENTER": 273.9826, "MEAN_ANOMALY": 324.6413, "EPHEMERIS_TYPE": 0, "CLASSIFICATION_TYPE": "U", "NORAD_CAT_ID": 66501, "ELEMENT_SET_NO": 999, "REV_AT_EPOCH": 388, "BSTAR": 0.00034366, "MEAN_MOTION_DOT": 0.00052614, "MEAN_MOTION_DDOT": 0}, "tle": {"line1": "1 66501U 25263S   25335.83335647  .00052614  00000+0  34366-3 0  9995", "line2": "2 66501  42.9988 189.6670 0001487 273.9826 324.6413 15.75027486  3881"}}, "geometry": {"type": "Point", "coordinates": [17.267700027815096, -9.411322325747228]}}, {"type": "Feature", "properties": {"norad_id": 66502, "name": "STARLINK-35922", "group": "last-30-days", "lat": -13.233035715052045, "lon": 21.62438808769525, "alt_km": 345.2911047076468, "timestamp": "2025-12-02T06:27:51.801521+00:00", "meta": {"OBJECT_NAME": "STARLINK-35922", "OBJECT_ID": "2025-263T", "EPOCH": "2025-12-01T20:00:01.999008", "MEAN_MOTION": 15.75020235, "ECCENTRICITY": 0.0002096, "INCLINATION": 42.9988, "RA_OF_ASC_NODE": 189.6525, "ARG_OF_PERICENTER": 268.7591, "MEAN_ANOMALY": 335.617, "EPHEMERIS_TYPE": 0, "CLASSIFICATION_TYPE": "U", "NORAD_CAT_ID": 66502, "ELEMENT_SET_NO": 999, "REV_AT_EPOCH": 388, "BSTAR": 0.00042819, "MEAN_MOTION_DOT": 0.00065758, "MEAN_MOTION_DDOT": 0}, "tle": {"line1": "1 66502U 25263T   25335.83335647  .00065758  00000+0  42819-3 0  9991", "line2": "2 66502  42.9988 189.6525 0002096 268.7591 335.6170 15.75020235  3886"}}, "geometry": {"type": "Point", "coordinates": [21.62438808769525, -13.233035715052045]}}, {"type": "Feature", "properties": {"norad_id": 66503, "name": "STARLINK-35917", "group": "last-30-days", "lat": -15.69870125370987, "lon": 24.548915350837625, "alt_km": 345.5095561568269, "timestamp": "2025-12-02T06:27:51.801531+00:00", "meta": {"OBJECT_NAME": "STARLINK-35917", "OBJECT_ID": "2025-263U", "EPOCH": "2025-12-01T14:00:01.999872", "MEAN_MOTION": 15.75023425, "ECCENTRICITY": 0.00017321, "INCLINATION": 42.9988, "RA_OF_ASC_NODE": 191.1558, "ARG_OF_PERICENTER": 252.8229, "MEAN_ANOMALY": 16.1284, "EPHEMERIS_TYPE": 0, "CLASSIFICATION_TYPE": "U", "NORAD_CAT_ID": 66503, "ELEMENT_SET_NO": 999, "REV_AT_EPOCH": 384, "BSTAR": -0.00011989993, "MEAN_MOTION_DOT": -0.00018842, "MEAN_MOTION_DDOT": 0}, "tle": {"line1": "1 66503U 25263U   25335.58335648 -.00018842  00000+0 -11990-3 0  9995", "line2": "2 66503  42.9988 191.1558 0001732 252.8229  16.1284 15.75023425  3846"}}, "geometry": {"type": "Point", "coordinates": [24.548915350837625, -15.69870125370987]}}, {"type": "Feature", "properties": {"norad_id": 66504, "name": "STARLINK-35916", "group": "last-30-days", "lat": 40.6490917814696, "lon": -105.54252206083987, "alt_km": 384.82982378090765, "timestamp": "2025-12-02T06:27:51.801562+00:00", "meta": {"OBJECT_NAME": "STARLINK-35916", "OBJECT_ID": "2025-263V", "EPOCH": "2025-12-01T20:00:01.999008", "MEAN_MOTION": 15.61543096, "ECCENTRICITY": 0.0001103, "INCLINATION": 42.9987, "RA_OF_ASC_NODE": 189.9095, "ARG_OF_PERICENTER": 267.7115, "MEAN_ANOMALY": 233.1507, "EPHEMERIS_TYPE": 0, "CLASSIFICATION_TYPE": "U", "NORAD_CAT_ID": 66504, "ELEMENT_SET_NO": 999, "REV_AT_EPOCH": 388, "BSTAR": -0.032681, "MEAN_MOTION_DOT": -0.02506813, "MEAN_MOTION_DDOT": 0}, "tle": {"line1": "1 66504U 25263V   25335.83335647 -.02506813  00000+0 -32681-1 0  9993", "line2": "2 66504  42.9987 189.9095 0001103 267.7115 233.1507 15.61543096  3887"}}, "geometry": {"type": "Point", "coordinates": [-105.54252206083987, 40.6490917814696]}}, {"type": "Feature", "properties": {"norad_id": 66505, "name": "STARLINK-34766", "group": "last-30-days", "lat": -10.695133314707281, "lon": 18.710292846102668, "alt_km": 345.04091110177706, "timestamp": "2025-12-02T06:27:51.801576+00:00", "meta": {"OBJECT_NAME": "STARLINK-34766", "OBJECT_ID": "2025-263W", "EPOCH": "2025-12-01T20:00:01.999008", "MEAN_MOTION": 15.75015755, "ECCENTRICITY": 0.0001719, "INCLINATION": 42.9987, "RA_OF_ASC_NODE": 189.6619, "ARG_OF_PERICENTER": 261.8925, "MEAN_ANOMALY": 338.6563, "EPHEMERIS_TYPE": 0, "CLASSIFICATION_TYPE": "U", "NORAD_CAT_ID": 66505, "ELEMENT_SET_NO": 999, "REV_AT_EPOCH": 388, "BSTAR": 0.00047569, "MEAN_MOTION_DOT": 0.00073155, "MEAN_MOTION_DDOT": 0}, "tle": {"line1": "1 66505U 25263W   25335.83335647  .00073155  00000+0  47569-3 0  9991", "line2": "2 66505  42.9987 189.6619 0001719 261.8925 338.6563 15.75015755  3888"}}, "geometry": {"type": "Point", "coordinates": [18.710292846102668, -10.695133314707281]}}]}